OBJECT_NAME,OBJECT_ID,EPOCH,MEAN_MOTION,ECCENTRICITY,INCLINATION,RA_OF_ASC_NODE,ARG_OF_PERICENTER,MEAN_ANOMALY,EPHEMERIS_TYPE,CLASSIFICATION_TYPE,NORAD_CAT_ID,ELEMENT_SET_NO,REV_AT_EPOCH,BSTAR,MEAN_MOTION_DOT,MEAN_MOTION_DDOT
STARLINK-33728,2025-087U,2026-06-04T09:02:10.991040,15.30218610,.00010261,53.1560,176.7737,77.1454,282.9661,0,U,63715,999,6247,.83115073E-3,.24352E-3,0
STARLINK-33749,2025-087V,2026-06-05T02:15:49.965984,15.31714286,.0001161,53.1581,173.4281,105.4753,254.6376,0,U,63716,999,6258,.72086E-3,.2208E-3,0
STARLINK-33725,2025-087W,2026-06-04T05:58:38.379648,15.30216817,.00013416,53.1579,177.4001,43.2477,316.8629,0,U,63717,999,6245,.10231772E-2,.30083E-3,0
STARLINK-33641,2025-087X,2026-06-04T13:17:17.541600,15.31712119,.00011621,53.1561,175.7436,68.4170,291.6955,0,U,63718,999,6250,.96603563E-3,.29743E-3,0
STARLINK-33727,2025-087Y,2026-06-04T17:08:24.987840,15.34399003,.00014217,53.1587,173.9088,67.1925,292.9228,0,U,63719,999,6254,.56981645E-3,.18924E-3,0
STARLINK-33757,2025-087Z,2026-06-04T06:13:49.927296,15.30200751,.00029479,53.1573,177.4564,18.7987,341.3122,0,U,63720,999,6245,.10165532E-2,.29872E-3,0
STARLINK-33774,2025-087AA,2026-06-04T05:40:55.998336,15.31729999,.00011861,53.1575,177.3213,77.1590,282.9544,0,U,63721,999,6245,.11237505E-2,.34701E-3,0
STARLINK-33767,2025-087AB,2026-06-04T05:55:37.482240,15.30211435,.00015415,53.1584,177.3767,46.1577,313.9551,0,U,63722,999,6245,.58666908E-3,.17062E-3,0
STARLINK-33806,2025-087AC,2026-06-04T06:04:43.344480,15.30203060,.000215,53.1592,177.4182,27.5645,332.5470,0,U,63723,999,6245,.65300412E-3,.19033E-3,0
KUIPER-00008,2025-088A,2026-06-04T23:37:45.299712,14.79942131,.0001049,51.9013,61.9900,116.7935,243.3135,0,U,63724,999,6097,-.69681E-3,-.553E-4,0
KUIPER-00009,2025-088B,2026-06-05T01:35:47.658048,14.80048098,.0000716,51.9022,79.2448,52.9551,307.1477,0,U,63725,999,6073,.6341E-3,.4629E-4,0
KUIPER-00010,2025-088C,2026-06-05T00:34:10.678944,14.79938422,.0001068,51.9025,56.9152,63.9027,296.2045,0,U,63726,999,6066,.16E-3,.999E-5,0
KUIPER-00011,2025-088D,2026-06-05T01:11:09.550176,14.79933176,.0000647,51.9014,64.3539,94.6411,265.4625,0,U,63727,999,6069,.22276E-4,-.51E-6,0
KUIPER-00012,2025-088E,2026-06-04T00:27:10.261728,14.79940441,.00005967,51.9027,53.8424,105.1229,254.9799,0,U,63728,999,6070,.14391991E-3,.876E-5,0
KUIPER-00013,2025-088F,2026-06-05T02:21:12.724416,14.79933442,.0000921,51.9012,81.5962,101.3285,258.7780,0,U,63729,999,6051,.17994E-3,.1151E-4,0
KUIPER-00014,2025-088G,2026-06-05T01:32:32.085600,14.79911745,.0000838,51.9028,81.6818,65.6247,294.4802,0,U,63730,999,6032,.1924E-3,.1245E-4,0
KUIPER-00015,2025-088H,2026-06-05T02:05:41.953632,14.79932241,.0000855,51.8996,91.6508,62.9064,297.1985,0,U,63731,999,6064,.31571E-4,.19E-6,0
KUIPER-00016,2025-088J,2026-06-04T02:47:18.328704,14.79931908,.00009495,51.8996,88.3973,97.4670,262.6400,0,U,63732,999,6014,.30322945E-3,.2091E-4,0
KUIPER-00018,2025-088K,2026-06-05T00:55:37.398720,14.79928327,.0000763,51.9036,74.3343,92.1020,268.0030,0,U,63733,999,6042,.13017E-3,.771E-5,0
KUIPER-00019,2025-088L,2026-06-05T01:34:02.016768,14.79934122,.0000364,51.9020,72.9843,105.0739,255.0264,0,U,63734,999,6044,.77248E-4,.368E-5,0
KUIPER-00020,2025-088M,2026-06-05T00:51:44.762400,14.79931767,.0001306,51.9019,76.8547,47.6254,312.4819,0,U,63735,999,6059,.13608E-4,-.118E-5,0
KUIPER-00021,2025-088N,2026-06-05T01:40:21.120960,14.79933923,.0001006,51.9014,76.6615,90.7311,269.3767,0,U,63736,999,6043,.42174E-4,.1E-5,0
KUIPER-00023,2025-088P,2026-06-05T00:47:50.546688,14.79938941,.0000726,51.9013,79.3141,119.4940,240.6095,0,U,63737,999,6069,-.55581E-4,-.645E-5,0
KUIPER-00024,2025-088Q,2026-06-05T01:07:16.665024,14.79934301,.0000655,51.9057,66.8452,107.3784,252.7250,0,U,63738,999,6099,.39804E-4,.82E-6,0
KUIPER-00025,2025-088R,2026-06-05T01:44:14.595360,14.79933097,.0000677,51.9026,74.2093,72.6164,287.4872,0,U,63739,999,6075,.29615E-4,.5E-7,0
KUIPER-00027,2025-088S,2026-06-05T01:03:21.249216,14.79935761,.0000757,51.9030,69.3133,99.5506,260.5542,0,U,63740,999,6055,.17178E-3,.1089E-4,0
KUIPER-00028,2025-088T,2026-06-04T01:37:14.693088,14.79931304,.00007239,51.9014,71.0877,97.0933,263.0112,0,U,63741,999,6085,.90962449E-4,.472E-5,0
KUIPER-00029,2025-088U,2026-06-05T01:21:33.405696,14.79879937,.0001703,51.9010,65.3927,98.1457,261.9698,0,U,63742,999,6054,.72495E-3,.5303E-4,0
KUIPER-00030,2025-088V,2026-06-05T02:17:19.491072,14.79938325,.0000659,51.9011,84.0468,104.8894,255.2142,0,U,63743,999,6057,.20436E-3,.1337E-4,0
KUIPER-00031,2025-088W,2026-06-04T23:19:45.417216,14.76399251,.0002115,51.9022,68.5290,74.6403,285.4791,0,U,63744,999,6049,.38667E-3,.2498E-4,0
