STARLINK-33728          
1 63715U 25087U   26155.37651610  .00024352  00000+0  83115-3 0  9998
2 63715  53.1560 176.7737 0001026  77.1454 282.9661 15.30218610 62479
STARLINK-33749          
1 63716U 25087V   26156.09432831  .00022080  00000+0  72086-3 0  9992
2 63716  53.1581 173.4281 0001161 105.4753 254.6376 15.31714286 62580
STARLINK-33725          
1 63717U 25087W   26155.24905532  .00030083  00000+0  10232-2 0  9998
2 63717  53.1579 177.4001 0001341  43.2477 316.8629 15.30216817 62458
STARLINK-33641          
1 63718U 25087X   26155.55367525  .00029743  00000+0  96604-3 0  9996
2 63718  53.1561 175.7436 0001162  68.4170 291.6955 15.31712119 62508
STARLINK-33727          
1 63719U 25087Y   26155.71417810  .00018924  00000+0  56982-3 0  9992
2 63719  53.1587 173.9088 0001421  67.1925 292.9228 15.34399003 62549
STARLINK-33757          
1 63720U 25087Z   26155.25960564  .00029872  00000+0  10166-2 0  9999
2 63720  53.1573 177.4564 0002947  18.7987 341.3122 15.30200751 62457
STARLINK-33774          
1 63721U 25087AA  26155.23675924  .00034701  00000+0  11238-2 0  9999
2 63721  53.1575 177.3213 0001186  77.1590 282.9544 15.31729999 62452
STARLINK-33767          
1 63722U 25087AB  26155.24696160  .00017062  00000+0  58667-3 0  9995
2 63722  53.1584 177.3767 0001541  46.1577 313.9551 15.30211435 62456
STARLINK-33806          
1 63723U 25087AC  26155.25327945  .00019033  00000+0  65300-3 0  9991
2 63723  53.1592 177.4182 0002150  27.5645 332.5470 15.30203060 62456
KUIPER-00008            
1 63724U 25088A   26155.98455208 -.00005530  00000+0 -69681-3 0  9992
2 63724  51.9013  61.9900 0001049 116.7935 243.3135 14.79942131 60978
KUIPER-00009            
1 63725U 25088B   26156.06652382  .00004629  00000+0  63410-3 0  9995
2 63725  51.9022  79.2448 0000716  52.9551 307.1477 14.80048098 60736
KUIPER-00010            
1 63726U 25088C   26156.02373471  .00000999  00000+0  16000-3 0  9990
2 63726  51.9025  56.9152 0001068  63.9027 296.2045 14.79938422 60663
KUIPER-00011            
1 63727U 25088D   26156.04941609 -.00000051  00000+0  22276-4 0  9990
2 63727  51.9014  64.3539 0000647  94.6411 265.4625 14.79933176 60690
KUIPER-00012            
1 63728U 25088E   26155.01886877  .00000876  00000+0  14392-3 0  9995
2 63728  51.9027  53.8424 0000596 105.1229 254.9799 14.79940441 60709
KUIPER-00013            
1 63729U 25088F   26156.09806394  .00001151  00000+0  17994-3 0  9999
2 63729  51.9012  81.5962 0000921 101.3285 258.7780 14.79933442 60515
KUIPER-00014            
1 63730U 25088G   26156.06426025  .00001245  00000+0  19240-3 0  9997
2 63730  51.9028  81.6818 0000838  65.6247 294.4802 14.79911745 60325
KUIPER-00015            
1 63731U 25088H   26156.08729113  .00000019  00000+0  31571-4 0  9994
2 63731  51.8996  91.6508 0000855  62.9064 297.1985 14.79932241 60643
KUIPER-00016            
1 63732U 25088J   26155.11618436  .00002091  00000+0  30323-3 0  9998
2 63732  51.8996  88.3973 0000949  97.4670 262.6400 14.79931908 60146
KUIPER-00018            
1 63733U 25088K   26156.03862730  .00000771  00000+0  13017-3 0  9993
2 63733  51.9036  74.3343 0000763  92.1020 268.0030 14.79928327 60425
KUIPER-00019            
1 63734U 25088L   26156.06530112  .00000368  00000+0  77248-4 0  9992
2 63734  51.9020  72.9843 0000364 105.0739 255.0264 14.79934122 60443
KUIPER-00020            
1 63735U 25088M   26156.03593475 -.00000118  00000+0  13608-4 0  9995
2 63735  51.9019  76.8547 0001306  47.6254 312.4819 14.79931767 60598
KUIPER-00021            
1 63736U 25088N   26156.06968890  .00000100  00000+0  42174-4 0  9996
2 63736  51.9014  76.6615 0001006  90.7311 269.3767 14.79933923 60439
KUIPER-00023            
1 63737U 25088P   26156.03322392 -.00000645  00000+0 -55581-4 0  9997
2 63737  51.9013  79.3141 0000726 119.4940 240.6095 14.79938941 60697
KUIPER-00024            
1 63738U 25088Q   26156.04672066  .00000082  00000+0  39804-4 0  9998
2 63738  51.9057  66.8452 0000655 107.3784 252.7250 14.79934301 60991
KUIPER-00025            
1 63739U 25088R   26156.07239115  .00000005  00000+0  29615-4 0  9990
2 63739  51.9026  74.2093 0000677  72.6164 287.4872 14.79933097 60752
KUIPER-00027            
1 63740U 25088S   26156.04399594  .00001089  00000+0  17178-3 0  9990
2 63740  51.9030  69.3133 0000757  99.5506 260.5542 14.79935761 60550
KUIPER-00028            
1 63741U 25088T   26155.06753117  .00000472  00000+0  90962-4 0  9995
2 63741  51.9014  71.0877 0000723  97.0933 263.0112 14.79931304 60851
KUIPER-00029            
1 63742U 25088U   26156.05663664  .00005303  00000+0  72495-3 0  9991
2 63742  51.9010  65.3927 0001703  98.1457 261.9698 14.79879937 60547
KUIPER-00030            
1 63743U 25088V   26156.09536448  .00001337  00000+0  20436-3 0  9996
2 63743  51.9011  84.0468 0000659 104.8894 255.2142 14.79938325 60576
KUIPER-00031            
1 63744U 25088W   26155.97205344  .00002498  00000+0  38667-3 0  9995
2 63744  51.9022  68.5290 0002115  74.6403 285.4791 14.76399251 60490
